[{"OBJECT_NAME":"OBJECT F","OBJECT_ID":"2023-072F","EPOCH":"2026-03-09T23:31:37.259904","MEAN_MOTION":15.29470958,"ECCENTRICITY":0.00062878,"INCLINATION":97.5173,"RA_OF_ASC_NODE":265.798,"ARG_OF_PERICENTER":19.0017,"MEAN_ANOMALY":341.1456,"EPHEMERIS_TYPE":0,"CLASSIFICATION_TYPE":"U","NORAD_CAT_ID":56748,"ELEMENT_SET_NO":999,"REV_AT_EPOCH":15460,"BSTAR":0.00043416252,"MEAN_MOTION_DOT":0.00012341,"MEAN_MOTION_DDOT":0},{"OBJECT_NAME":"STARLINK-34196","OBJECT_ID":"2025-189B","EPOCH":"2026-03-09T15:38:19.592160","MEAN_MOTION":15.3017852,"ECCENTRICITY":0.00011134,"INCLINATION":53.1598,"RA_OF_ASC_NODE":206.7304,"ARG_OF_PERICENTER":49.2578,"MEAN_ANOMALY":310.8519,"EPHEMERIS_TYPE":0,"CLASSIFICATION_TYPE":"U","NORAD_CAT_ID":65324,"ELEMENT_SET_NO":999,"REV_AT_EPOCH":3105,"BSTAR":0.00042843396,"MEAN_MOTION_DOT":0.00012343,"MEAN_MOTION_DDOT":0}]
